[{"OBJECT_NAME":"UWE-3","OBJECT_ID":"2013-066AG","EPOCH":"2026-03-09T20:43:24.491424","MEAN_MOTION":14.96183146,"ECCENTRICITY":0.00484622,"INCLINATION":97.8589,"RA_OF_ASC_NODE":24.3957,"ARG_OF_PERICENTER":291.5404,"MEAN_ANOMALY":68.0655,"EPHEMERIS_TYPE":0,"CLASSIFICATION_TYPE":"U","NORAD_CAT_ID":39446,"ELEMENT_SET_NO":999,"REV_AT_EPOCH":66272,"BSTAR":0.00057141515,"MEAN_MOTION_DOT":6.533e-5,"MEAN_MOTION_DDOT":0},{"OBJECT_NAME":"STARLINK-5020","OBJECT_ID":"2023-015K","EPOCH":"2026-03-09T10:15:17.646912","MEAN_MOTION":15.02541076,"ECCENTRICITY":0.0001236,"INCLINATION":43.0042,"RA_OF_ASC_NODE":327.4906,"ARG_OF_PERICENTER":263.9937,"MEAN_ANOMALY":96.0765,"EPHEMERIS_TYPE":0,"CLASSIFICATION_TYPE":"U","NORAD_CAT_ID":55458,"ELEMENT_SET_NO":999,"REV_AT_EPOCH":17071,"BSTAR":-0.0002408723,"MEAN_MOTION_DOT":-3.456e-5,"MEAN_MOTION_DDOT":0}]
