UWE-3                   
1 39446U 13066AG  26068.86347791  .00006533  00000+0  57142-3 0  9997
2 39446  97.8589  24.3957 0048462 291.5404  68.0655 14.96183146662729
STARLINK-5020           
1 55458U 23015K   26068.42728758 -.00003456  00000+0 -24087-3 0  9996
2 55458  43.0042 327.4906 0001236 263.9937  96.0765 15.02541076170714
